LEMUR-2-LAILA           
1 66776U 25276DQ  26163.15608249  .00006288  00000+0  28482-3 0  9997
2 66776  97.4182 237.1182 0001905 142.4277 217.7092 15.21217396 29681
LEMUR-2-CELIJO-SB-PK    
1 66781U 25276DW  26163.16668958  .00007114  00000+0  57720-3 0  9993
2 66781  97.5276 234.1081 0008913 144.4326 215.7493 14.99915810 21876
LEMUR-2-FINNIAN         
1 66782U 25276DX  26163.14500347  .00006225  00000+0  50057-3 0  9997
2 66782  97.5276 234.2968 0008763 104.3763 255.8434 15.00313633 19241
LEMUR-2-STARLIGHT       
1 66783U 25276DY  26163.16361399  .00005558  00000+0  46227-3 0  9994
2 66783  97.5279 233.9734 0015286 141.9885 218.2420 14.98992683 29447
LEMUR-2-TARTIFLETTE     
1 66784U 25276DZ  26163.16219134  .00006306  00000+0  52366-3 0  9997
2 66784  97.5282 233.9778 0014003 148.0534 212.1541 14.99022091 29440
LEMUR-2-VUKASIN         
1 66785U 25276EA  26163.16018586  .00006293  00000+0  50610-3 0  9991
2 66785  97.5316 234.2603 0006318 135.8761 224.2968 15.00314385 29390
LEMUR-2-HOTSPUR-TOM     
1 66786U 25276EB  26163.15437802  .00006988  00000+0  58125-3 0  9997
2 66786  97.5270 233.9529 0015471 142.8442 217.3855 14.98901543 29377
LEMUR-2-MYRA            
1 66787U 25276EC  26163.12451759  .00006050  00000+0  48755-3 0  9990
2 66787  97.5223 234.1717 0015988 158.2061 201.9846 15.00172479 29459
LEMUR-2 FIKRETDENGIZ    
1 67363U 26004A   26162.95746804  .00003506  00000+0  38488-3 0  9994
2 67363  97.8009 161.5960 0009675 147.7877 212.3933 14.88288269 22504
TWILIGHT-1 OBJECT B     
1 67364U 26004B   26162.97977069  .00001537  00000+0  17460-3 0  9995
2 67364  97.8060 161.6355 0009627 139.2713 220.9225 14.87684129 22517
LEMUR-2-MARIO-SOUSA     
1 67365U 26004C   26163.27786549  .00004894  00000+0  53236-3 0  9991
2 67365  97.7986 161.9078 0009312 147.3986 212.7807 14.88476473 22564
LEMUR-2-SONNENBLUME     
1 67367U 26004E   26163.27562571  .00003075  00000+0  33830-3 0  9998
2 67367  97.7981 161.8920 0008793 149.3800 210.7932 14.88291929 22563
LEMUR-2-WOBLER          
1 67368U 26004F   26163.26976399  .00004102  00000+0  44712-3 0  9998
2 67368  97.8032 162.0034 0009229 139.3413 220.8495 14.88484626 22569
LEMUR-2-GRAM-E-SUE      
1 67370U 26004H   26163.26027605  .00002524  00000+0  27771-3 0  9990
2 67370  97.7968 161.8915 0007844 149.7593 210.4078 14.88450463 22563
LEMUR-2-KATIE           
1 67387U 26004AA  26163.25274884  .00003613  00000+0  38011-3 0  9999
2 67387  97.8029 162.3275 0004720 103.2472 256.9272 14.90018481 22571
LEMUR-2-HCS-BAZUS       
1 67388U 26004AB  26163.25185729  .00004878  00000+0  51106-3 0  9993
2 67388  97.8015 162.3080 0004288  99.5058 260.6645 14.90024007 22574
