OBJECT_NAME,OBJECT_ID,EPOCH,MEAN_MOTION,ECCENTRICITY,INCLINATION,RA_OF_ASC_NODE,ARG_OF_PERICENTER,MEAN_ANOMALY,EPHEMERIS_TYPE,CLASSIFICATION_TYPE,NORAD_CAT_ID,ELEMENT_SET_NO,REV_AT_EPOCH,BSTAR,MEAN_MOTION_DOT,MEAN_MOTION_DDOT
LEMUR-2-LAILA,2025-276DQ,2026-06-12T03:44:45.527136,15.21217396,.00019055,97.4182,237.1182,142.4277,217.7092,0,U,66776,999,2968,.28482212E-3,.6288E-4,0
LEMUR-2-CELIJO-SB-PK,2025-276DW,2026-06-12T04:00:01.979712,14.99915810,.00089134,97.5276,234.1081,144.4326,215.7493,0,U,66781,999,2187,.57720411E-3,.7114E-4,0
LEMUR-2-FINNIAN,2025-276DX,2026-06-12T03:28:48.299808,15.00313633,.00087637,97.5276,234.2968,104.3763,255.8434,0,U,66782,999,1924,.5005728E-3,.6225E-4,0
LEMUR-2-STARLIGHT,2025-276DY,2026-06-12T03:55:36.248736,14.98992683,.00152861,97.5279,233.9734,141.9885,218.2420,0,U,66783,999,2944,.46227275E-3,.5558E-4,0
LEMUR-2-TARTIFLETTE,2025-276DZ,2026-06-12T03:53:33.331776,14.99022091,.00140033,97.5282,233.9778,148.0534,212.1541,0,U,66784,999,2944,.52365981E-3,.6306E-4,0
LEMUR-2-VUKASIN,2025-276EA,2026-06-12T03:50:40.058304,15.00314385,.00063184,97.5316,234.2603,135.8761,224.2968,0,U,66785,999,2939,.50609842E-3,.6293E-4,0
LEMUR-2-HOTSPUR-TOM,2025-276EB,2026-06-12T03:42:18.260928,14.98901543,.00154712,97.5270,233.9529,142.8442,217.3855,0,U,66786,999,2937,.58125313E-3,.6988E-4,0
LEMUR-2-MYRA,2025-276EC,2026-06-12T02:59:18.319776,15.00172479,.00159885,97.5223,234.1717,158.2061,201.9846,0,U,66787,999,2945,.48755324E-3,.605E-4,0
LEMUR-2 FIKRETDENGIZ,2026-004A,2026-06-11T22:58:45.238656,14.88288269,.00096757,97.8009,161.5960,147.7877,212.3933,0,U,67363,999,2250,.38487928E-3,.3506E-4,0
TWILIGHT-1 OBJECT B,2026-004B,2026-06-11T23:30:52.187616,14.87684129,.00096272,97.8060,161.6355,139.2713,220.9225,0,U,67364,999,2251,.17459768E-3,.1537E-4,0
LEMUR-2-MARIO-SOUSA,2026-004C,2026-06-12T06:40:07.578336,14.88476473,.00093122,97.7986,161.9078,147.3986,212.7807,0,U,67365,999,2256,.53236324E-3,.4894E-4,0
LEMUR-2-SONNENBLUME,2026-004E,2026-06-12T06:36:54.061344,14.88291929,.0008793,97.7981,161.8920,149.3800,210.7932,0,U,67367,999,2256,.33829866E-3,.3075E-4,0
LEMUR-2-WOBLER,2026-004F,2026-06-12T06:28:27.608736,14.88484626,.00092295,97.8032,162.0034,139.3413,220.8495,0,U,67368,999,2256,.44711643E-3,.4102E-4,0
LEMUR-2-GRAM-E-SUE,2026-004H,2026-06-12T06:14:47.850720,14.88450463,.00078448,97.7968,161.8915,149.7593,210.4078,0,U,67370,999,2256,.27770845E-3,.2524E-4,0
LEMUR-2-KATIE,2026-004AA,2026-06-12T06:03:57.499776,14.90018481,.00047203,97.8029,162.3275,103.2472,256.9272,0,U,67387,999,2257,.38011421E-3,.3613E-4,0
LEMUR-2-HCS-BAZUS,2026-004AB,2026-06-12T06:02:40.469856,14.90024007,.00042884,97.8015,162.3080,99.5058,260.6645,0,U,67388,999,2257,.51105648E-3,.4878E-4,0
